"name","address","latitude","longitude","b_type"
"1070 OAK ST SHELL STATION","1070 Oak St, San Francisco, CA 94117",37.773202881217,-122.436882331967,"gas_station"
"19TH AVE SHELL","1200 19th Ave, San Francisco, CA 94122",37.7653031051159,-122.47732065618,"gas_station"
"237 BRODERICK APTS","237 Broderick St, San Francisco, CA 94117",37.7723814547062,-122.438976466656,"gas_station"
"2985 SAN BRUNO AVE BLDG","2985 San Bruno Ave, San Francisco, CA 94134",37.7240600585938,-122.40210723877,"gas_station"
"501 SO VAN NESS AVE PROPERTY","501 S Van Ness Ave, San Francisco, CA 94110",37.764762878418,-122.417449951172,"gas_station"
"7-ELEVEN STORE #2366-39475","3400 Mission St, San Francisco, CA 94110",37.7419586181641,-122.422248840332,"gas_station"
"ACME ARCO","710 San Jose Ave, San Francisco, CA 94110",37.7436804771423,-122.422842979431,"gas_station"
"ALEMANY SHELL","2200 Alemany Blvd, San Francisco, CA 94112",37.7176818847656,-122.44261932373,"gas_station"
"ALIANZA SERVICE STATION","2901 Bryant St, San Francisco, CA 94110",37.7482335269451,-122.40870706737,"gas_station"
"AMERICAN GAS","2831 Cesar Chavez St, San Francisco, CA 94110",37.7488262951374,-122.406594157219,"gas_station"
"ARMY CIRCLE B P SERVICE","2831 Cesar Chavez St, San Francisco, CA 94110",37.7488262951374,-122.406594157219,"gas_station"
"ART'S VALERO","2985 San Bruno Ave, San Francisco, CA 94134",37.7240600585938,-122.40210723877,"gas_station"
"BAYSHORE 76","975 Bayshore Blvd, San Francisco, CA 94124",37.7319641113281,-122.40412902832,"gas_station"
"BAYSHORE 76","975 Bayshore Blvd, San Francisco, CA 94124",37.7319641113281,-122.40412902832,"gas_station"
"BAYSHORE 76","975 Bayshore Blvd, San Francisco, CA 94124",37.7319641113281,-122.40412902832,"gas_station"
"BAYSHORE GAS & SERVICE INC","2260 Bayshore Blvd, San Francisco, CA 94134",37.711971282959,-122.403175354004,"gas_station"
"BAYSHORE SHELL","319 Bayshore Blvd, San Francisco, CA 94124",37.7427978515625,-122.405410766602,"gas_station"
"CALIFORNIA SHELL","2501 California St, San Francisco, CA 94115",37.7886810302734,-122.435707092285,"gas_station"
"CALVIN K SUNG AUTO SERVICE","999 Divisadero St, San Francisco, CA 94115",37.778434753418,-122.438484191895,"gas_station"
"CANADIAN-AMERICAN OIL CO","1070 Oak St, San Francisco, CA 94117",37.773202881217,-122.436882331967,"gas_station"
"CASTRO STREET CHEVRON","2399 Market St, San Francisco, CA 94114",37.76271879673,-122.435018196702,"gas_station"
"C CUSHERE","64 Highland Ave, San Francisco, CA 94110",37.737365886569,-122.424502596259,"gas_station"
"CHEVRON USA INC 302550","1298 Howard St, San Francisco, CA 94103",37.7754287719727,-122.412620544434,"gas_station"
"CHEVRON USA INC 90030","1501 Van Ness Ave, San Francisco, CA 94109",37.789665222168,-122.422286987305,"gas_station"
"CHEVRON USA INC 90087","1000 Harrison St, San Francisco, CA 94103",37.7770462036133,-122.404418945312,"gas_station"
"CHEVRON USA INC 90308","2399 Market St, San Francisco, CA 94114",37.76271879673,-122.435018196702,"gas_station"
"CHEVRON USA INC 90535","3675 Geary Blvd, San Francisco, CA 94118",37.7812156677246,-122.458534240723,"gas_station"
"CHEVRON USA INC 90787","2998 San Jose Ave, San Francisco, CA 94112",37.7116160094738,-122.455470710993,"gas_station"
"CHEVRON USA INC 90838","1100 Junipero Serra Blvd, San Francisco, CA 94132",37.7181739807129,-122.472625732422,"gas_station"
"CHEVRON USA INC 91000","1288 19th Ave, San Francisco, CA 94122",37.7638439834118,-122.477218732238,"gas_station"
"CHEVRON USA INC 91623","1698 Fell St, San Francisco, CA 94117",37.7730255126953,-122.445556640625,"gas_station"
"CHEVRON USA INC 93535","1790 Lombard St, San Francisco, CA 94123",37.8005065917969,-122.430877685547,"gas_station"
"CLEMENT AUTO SERVICE","388 32nd Ave, San Francisco, CA 94121",37.7819175720215,-122.492370605469,"gas_station"
"CRLLC 76 STORE 5601","3800 3rd St, San Francisco, CA 94124",37.742504119873,-122.388092041016,"gas_station"
"DANS AUTO SERVICE","3865 24th St, San Francisco, CA 94114",37.7516151219606,-122.42893025279,"gas_station"
"DOUBLE A 76","301 25th Ave, San Francisco, CA 94121",37.7836418151855,-122.484985351562,"gas_station"
"DOUBLE AA SILVER GAS","2400 San Bruno Ave, San Francisco, CA 94134",37.7323199808598,-122.405566200614,"gas_station"
"DOWNTOWN UNION 76","390 1st St, San Francisco, CA 94105",37.7863108366728,-122.393217980862,"gas_station"
"FELL & MASONIC CHEVRON","1698 Fell St, San Francisco, CA 94117",37.7730255126953,-122.445556640625,"gas_station"
"FELL ST SERVICE STATION INC","1175 Fell St, San Francisco, CA 94117",37.7741222083569,-122.43710629642,"gas_station"
"FISHERMANS WHARF UNION 76","490 Bay St, San Francisco, CA 94133",37.8054466247559,-122.414970397949,"gas_station"
"FISHERMANS WHARF UNOCAL","490 Bay St, San Francisco, CA 94133",37.8054466247559,-122.414970397949,"gas_station"
"F & O ENERGY","3300 Cesar Chavez St, San Francisco, CA 94110",37.7482167631388,-122.416093870997,"gas_station"
"F T I AUTO REPAIR-ARCO","1200 Geneva Ave, San Francisco, CA 94112",37.7140731811523,-122.435897827148,"gas_station"
"GEARY'S 76","3501 Geary Blvd, San Francisco, CA 94118",37.781307220459,-122.456535339355,"gas_station"
"GENERAL STORE","4035 Judah St, San Francisco, CA 94122",37.7604446411133,-122.505470275879,"gas_station"
"HARRISON SHELL","1201 Harrison St, San Francisco, CA 94103",37.7736129760742,-122.408706665039,"gas_station"
"JOES SILVER ARCO","4300 Mission St, San Francisco, CA 94112",37.7285079956055,-122.431510925293,"gas_station"
"J P AUTO SERVICE","1798 Mission St, San Francisco, CA 94103",37.7685089111328,-122.419990539551,"gas_station"
"JUNIPERO SERRA 76","1101 Junipero Serra Blvd, San Francisco, CA 94132",37.7161331176758,-122.472198486328,"gas_station"
"KASHANI BROTHERS UNION 76","1490 Ocean Ave, San Francisco, CA 94112",37.7242622375488,-122.457946777344,"gas_station"
"KASHANI UNION 76","1400 19th Ave, San Francisco, CA 94122",37.7614326477051,-122.476997375488,"gas_station"
"LINCOLN UNOCAL","1200 La Playa St, San Francisco, CA 94122",37.763484954834,-122.509376525879,"gas_station"
"LINCOLN WAY SHELL","601 Lincoln Way, San Francisco, CA 94122",37.7660217285156,-122.464584350586,"gas_station"
"LOMBARD SHELL","1800 Lombard St, San Francisco, CA 94123",37.8004574775696,-122.431281208992,"gas_station"
"LOMBARD TIRE & BRAKE","2342 Lombard St, San Francisco, CA 94123",37.7993269264698,-122.440076172352,"gas_station"
"LOMBARD VALERO","2601 Lombard St, San Francisco, CA 94123",37.7987899780273,-122.444534301758,"gas_station"
"MARGARETTI & COMPANY","210 Post St, San Francisco, CA 94108",37.7886638045311,-122.405532673001,"gas_station"
"MISSION 76","3400 Mission St, San Francisco, CA 94110",37.7419586181641,-122.422248840332,"gas_station"
"MISSION CHEVRON SERVICE","3400 Mission St, San Francisco, CA 94110",37.7419586181641,-122.422248840332,"gas_station"
"MISSION MARTCO","5098 Mission St, San Francisco, CA 94112",37.7168083190918,-122.440719604492,"gas_station"
"MISSION SHELL","3550 Mission St, San Francisco, CA 94110",37.7400360107422,-122.423469543457,"gas_station"
"MOSCONE CENTER AUTO CARE SHELL","300 5th St, San Francisco, CA 94107",37.780101776123,-122.403190612793,"gas_station"
"NERO ALVIN ARCO STATION","2495 Jennings St, San Francisco, CA 94124",37.7248840332031,-122.390609741211,"gas_station"
"NHU CHEVRON SERVICE","590 10th St, San Francisco, CA 94103",37.7695198059082,-122.408760070801,"gas_station"
"PACIFIC ENTERPRISES","999 Ocean Ave, San Francisco, CA 94112",37.7231941223145,-122.452812194824,"gas_station"
"PACIFIC HEIGHTS CHEVRON","2500 California St, San Francisco, CA 94115",37.7886810302734,-122.43571472168,"gas_station"
"PARK PRESIDIO 76","4850 Geary Blvd, San Francisco, CA 94118",37.7807700634003,-122.471252828836,"gas_station"
"PARKSIDE SHELL","2399 19th Ave, San Francisco, CA 94116",37.743166834116,-122.475669756532,"gas_station"
"PERFORMANCE SERVICE STATION","388 Potrero Ave, San Francisco, CA 94103",37.7647933959961,-122.40746307373,"gas_station"
"PETE'S UNOCAL 76 SERVICE","3701 Noriega St, San Francisco, CA 94122",37.7530288696289,-122.503578186035,"gas_station"
"POTRERO SHELL","2890 3rd St, San Francisco, CA 94107",37.7531356811523,-122.387908935547,"gas_station"
"PRECISE CHEVRON","1890 19th Ave, San Francisco, CA 94122",37.752613067627,-122.47632598877,"gas_station"
"PRESIDIO 76","4850 Geary Blvd, San Francisco, CA 94118",37.7807700634003,-122.471252828836,"gas_station"
"PYRAMID UNION 76 SERVICE STA","1600 Mission St, San Francisco, CA 94103",37.7722358703613,-122.419036865234,"gas_station"
"QUALITY GAS FR YR CASH ARCO AM","5898 Mission St, San Francisco, CA 94112",37.7088526636362,-122.452599406242,"gas_station"
"RAMSES RC GAS","376 Castro St, San Francisco, CA 94114",37.7629470825195,-122.435203552246,"gas_station"
"RANK QUICKSERVE INC","4199 Mission St, San Francisco, CA 94112",37.7303161621094,-122.429710388184,"gas_station"
"RICHMOND'S SUPER SHELL","4501 Geary Blvd, San Francisco, CA 94118",37.7808074951172,-122.467742919922,"gas_station"
"SAM TRUONG'S 76","1855 Taraval St, San Francisco, CA 94116",37.742603302002,-122.486068725586,"gas_station"
"SAN BRUNO AT SILVER SUPERSHELL","2380 San Bruno Ave, San Francisco, CA 94134",37.7326354980469,-122.405723571777,"gas_station"
"SAN BRUNO AV CHEVRON","2400 San Bruno Ave, San Francisco, CA 94134",37.7323199808598,-122.405566200614,"gas_station"
"SF STAR STATION","2831 Cesar Chavez St, San Francisco, CA 94110",37.7488262951374,-122.406594157219,"gas_station"
"SF THIRD SHELL","551 3rd St, San Francisco, CA 94107",37.7806138247252,-122.394956722856,"gas_station"
"SHUM UNION 76 SERVICE","3601 Lawton St, San Francisco, CA 94122",37.7568702697754,-122.501670837402,"gas_station"
"SIERRA PACIFIC RESOURCES INC","2022 Taraval St, San Francisco, CA 94116",37.7425143867731,-122.487815469503,"gas_station"
"SILVER OIL SERVICE INC","2190 Carroll Ave, San Francisco, CA 94124",37.7304000854492,-122.402961730957,"gas_station"
"SUNSET 76","1700 Noriega St, San Francisco, CA 94122",37.7539978027344,-122.482154846191,"gas_station"
"TURK STREET SHELL","800 Turk St, San Francisco, CA 94102",37.7816848754883,-122.422645568848,"gas_station"
"VALENCIA 76 GAS","1298 Valencia St, San Francisco, CA 94110",37.7522467821836,-122.420663684607,"gas_station"
"WEST PORTAL SERVICE INC","800 Ulloa St, San Francisco, CA 94127",37.740650177002,-122.465194702148,"gas_station"
"WILLS SUPER SHELL","4298 Mission St, San Francisco, CA 94112",37.7288856506348,-122.431144714355,"gas_station"
"WUS CLAYTON SHELL","1200 Clayton St, San Francisco, CA 94114",37.7614517211914,-122.446571350098,"gas_station"
"WUS THIRD ST SHELL","551 3rd St, San Francisco, CA 94107",37.7806138247252,-122.394956722856,"gas_station"
"XTRA OIL COMPANY","3750 3rd St, San Francisco, CA 94124",37.7430381774902,-122.387916564941,"gas_station"
